NORAD_CAT_ID,OBJECT_NAME,OBJECT_TYPE,EPOCH,MEAN_MOTION,ECCENTRICITY,INCLINATION,RA_OF_ASC_NODE,ARG_OF_PERICENTER,MEAN_ANOMALY,BSTAR,MEAN_MOTION_DOT,MEAN_MOTION_DDOT,TLE_LINE0,TLE_LINE1,TLE_LINE2,SEMIMAJOR_AXIS,PERIOD,APOGEE,PERIGEE,DECAYED
50205.0,STARLINK-3260,PAYLOAD,2023-11-30 03:39:40,15.08842219,0.0001929,53.2174,337.5451,100.1429,259.978,0.0013841,0.0002181,0.0,0 STARLINK-3260,1 50205U 21125BB  23334.15254730  .00021810  00000-0  13841-2 0  9996,2 50205  53.2174 337.5451 0001929 100.1429 259.9780 15.08842219111308,6917.874,95.437,541.073,538.404,0.0
50205.0,STARLINK-3260,PAYLOAD,2023-12-01 05:05:50,15.08841538,0.0001724,53.2183,332.7916,90.6569,269.462,0.00046302,7.089e-05,0.0,0 STARLINK-3260,1 50205U 21125BB  23335.21239129  .00007089  00000-0  46302-3 0  9990,2 50205  53.2183 332.7916 0001724  90.6569 269.4620 15.08841538111461,6917.876,95.437,540.933,538.548,0.0
50205.0,STARLINK-3260,PAYLOAD,2023-12-01 09:51:59,15.08850879,0.0001697,53.2177,331.8979,97.3739,262.7446,0.00084955,0.00013262,0.0,0 STARLINK-3260,1 50205U 21125BB  23335.41110966  .00013262  00000-0  84955-3 0  9995,2 50205  53.2177 331.8979 0001697  97.3739 262.7446 15.08850879111498,6917.847,95.437,540.886,538.538,0.0
50205.0,STARLINK-3260,PAYLOAD,2023-12-02 06:31:59,15.08888047,0.0001942,53.2185,328.0284,109.7394,250.3808,0.0018438,0.00029217,0.0,0 STARLINK-3260,1 50205U 21125BB  23336.27221876  .00029217  00000-0  18438-2 0  9992,2 50205  53.2185 328.0284 0001942 109.7394 250.3808 15.08888047111620,6917.734,95.435,540.942,538.255,0.0
50205.0,STARLINK-3260,PAYLOAD,2023-12-02 19:15:04,15.08842147,0.0001552,53.2192,325.6498,121.7655,238.3488,-0.00020284,-3.515e-05,0.0,0 STARLINK-3260,1 50205U 21125BB  23336.80214117 -.00003515  00000-0 -20284-3 0  9999,2 50205  53.2192 325.6498 0001552 121.7655 238.3488 15.08842147111709,6917.874,95.437,540.812,538.665,0.0
50205.0,STARLINK-3260,PAYLOAD,2023-12-03 03:12:01,15.0880016,0.0002916,53.2179,324.1644,131.8293,228.2949,-0.0013931,-0.00022369,0.0,0 STARLINK-3260,1 50205U 21125BB  23337.13335066 -.00022369  00000-0 -13931-2 0  9991,2 50205  53.2179 324.1644 0002916 131.8293 228.2949 15.08800160111750,6918.002,95.44,541.884,537.85,0.0
50205.0,STARLINK-3260,PAYLOAD,2023-12-03 06:22:48,15.08805786,0.0001676,53.218,323.5779,93.913,266.2053,-0.00081989,-0.00013301,0.0,0 STARLINK-3260,1 50205U 21125BB  23337.26584015 -.00013301  00000-0 -81989-3 0  9990,2 50205  53.2180 323.5779 0001676  93.9130 266.2053 15.08805786112246,6917.985,95.44,541.009,538.691,0.0
50205.0,STARLINK-3260,PAYLOAD,2023-12-04 03:02:50,15.08826746,0.0001543,53.2191,319.7109,96.4149,263.7019,0.00066238,0.00010266,0.0,0 STARLINK-3260,1 50205U 21125BB  23338.12697213  .00010266  00000-0  66238-3 0  9996,2 50205  53.2191 319.7109 0001543  96.4149 263.7019 15.08826746111908,6917.921,95.438,540.853,538.718,0.0
50205.0,STARLINK-3260,PAYLOAD,2023-12-04 04:38:13,15.0883539,0.0001617,53.2168,319.411,83.0754,277.0422,0.0012007,0.0001887,0.0,0 STARLINK-3260,1 50205U 21125BB  23338.19321384  .00018870  00000-0  12007-2 0  9999,2 50205  53.2168 319.4110 0001617  83.0754 277.0422 15.08835390112381,6917.894,95.438,540.878,538.641,0.0
50205.0,STARLINK-3260,PAYLOAD,2023-12-05 02:53:36,15.08880994,0.0001659,53.2163,315.2479,85.6736,274.4445,0.0013334,0.00021021,0.0,0 STARLINK-3260,1 50205U 21125BB  23339.12055967  .00021021  00000-0  13334-2 0  9990,2 50205  53.2163 315.2479 0001659  85.6736 274.4445 15.08880994112052,6917.755,95.435,540.768,538.472,0.0
50205.0,STARLINK-3260,PAYLOAD,2023-12-05 06:04:22,15.08886395,0.000171,53.2163,314.6539,87.1215,272.9973,0.0014278,0.00022537,0.0,0 STARLINK-3260,1 50205U 21125BB  23339.25303591  .00022537  00000-0  14278-2 0  9994,2 50205  53.2163 314.6539 0001710  87.1215 272.9973 15.08886395112543,6917.739,95.435,540.787,538.421,0.0
50205.0,STARLINK-3260,PAYLOAD,2023-12-05 21:58:13,15.08862012,0.0002001,53.2172,311.6803,91.6602,268.4619,0.00096285,0.00015078,0.0,0 STARLINK-3260,1 50205U 21125BB  23339.91543344  .00015078  00000-0  96285-3 0  9990,2 50205  53.2172 311.6803 0002001  91.6602 268.4619 15.08862012112646,6917.813,95.436,541.062,538.294,0.0
50205.0,STARLINK-3260,PAYLOAD,2023-12-06 04:19:45,15.08857504,0.0001766,53.2161,310.4883,89.4454,270.6741,0.00034107,5.147e-05,0.0,0 STARLINK-3260,1 50205U 21125BB  23340.18039165  .00005147  00000-0  34107-3 0  9993,2 50205  53.2161 310.4883 0001766  89.4454 270.6741 15.08857504112210,6917.827,95.436,540.914,538.47,0.0
50205.0,STARLINK-3260,PAYLOAD,2023-12-06 12:16:41,15.0885469,0.0001731,53.2167,309.0005,112.3047,247.8129,0.00037141,5.63e-05,0.0,0 STARLINK-3260,1 50205U 21125BB  23340.51158795  .00005630  00000-0  37141-3 0  9999,2 50205  53.2167 309.0005 0001731 112.3047 247.8129 15.08854690112738,6917.835,95.437,540.898,538.503,0.0
50205.0,STARLINK-3260,PAYLOAD,2023-12-06 21:49:00,15.08830519,0.0001678,53.2172,307.2212,82.6695,277.4488,0.00013691,1.891e-05,0.0,0 STARLINK-3260,1 50205U 21125BB  23340.90903557  .00001891  00000-0  13691-3 0  9995,2 50205  53.2172 307.2212 0001678  82.6695 277.4488 15.08830519112799,6917.909,95.438,540.935,538.614,0.0
50205.0,STARLINK-3260,PAYLOAD,2023-12-07 04:10:33,15.08832864,0.0001925,53.2165,306.0317,78.8118,281.309,0.00045686,6.989e-05,0.0,0 STARLINK-3260,1 50205U 21125BB  23341.17399847  .00006989  00000-0  45686-3 0  9998,2 50205  53.2165 306.0317 0001925  78.8118 281.3090 15.08832864112367,6917.902,95.438,541.099,538.436,0.0
50205.0,STARLINK-3260,PAYLOAD,2023-12-08 04:01:20,15.08837744,0.000178,53.2162,301.5698,86.9856,273.134,0.00035735,5.403e-05,0.0,0 STARLINK-3260,1 50205U 21125BB  23342.16760239  .00005403  00000-0  35735-3 0  9999,2 50205  53.2162 301.5698 0001780  86.9856 273.1340 15.08837744112510,6917.887,95.438,540.984,538.521,0.0
50205.0,STARLINK-3260,PAYLOAD,2023-12-08 07:12:07,15.08840637,0.0001725,53.2159,300.9742,91.425,268.694,0.00043841,6.696e-05,0.0,0 STARLINK-3260,1 50205U 21125BB  23342.30008166  .00006696  00000-0  43841-3 0  9991,2 50205  53.2159 300.9742 0001725  91.4250 268.6940 15.08840637113002,6917.878,95.438,540.937,538.55,0.0
50205.0,STARLINK-3260,PAYLOAD,2023-12-09 07:02:53,15.08857577,0.0001684,53.2157,296.5107,100.7089,259.4093,0.00051575,7.934e-05,0.0,0 STARLINK-3260,1 50205U 21125BB  23343.29367405  .00007934  00000-0  51575-3 0  9993,2 50205  53.2157 296.5107 0001684 100.7089 259.4093 15.08857577112684,6917.827,95.436,540.857,538.527,0.0
50205.0,STARLINK-3260,PAYLOAD,2023-12-10 06:53:41,15.08840997,0.000241,53.2166,292.0517,79.4954,280.6309,0.0001189,1.605e-05,0.0,0 STARLINK-3260,1 50205U 21125BB  23344.28728294  .00001605  00000-0  11890-3 0  9995,2 50205  53.2166 292.0517 0002410  79.4954 280.6309 15.08840997112832,6917.877,95.437,541.41,538.075,0.0
50205.0,STARLINK-3260,PAYLOAD,2023-12-11 01:58:18,15.08840479,0.0001707,53.2173,288.4828,96.1157,264.003,-3.7183e-05,-8.8e-06,0.0,0 STARLINK-3260,1 50205U 21125BB  23345.08216000 -.00000880  00000-0 -37183-4 0  9991,2 50205  53.2173 288.4828 0001707  96.1157 264.0030 15.08840479113421,6917.879,95.438,540.925,538.563,0.0
50205.0,STARLINK-3260,PAYLOAD,2023-12-12 03:24:28,15.08845248,0.0001534,53.2165,283.7274,82.846,277.2707,0.00030005,4.491e-05,0.0,0 STARLINK-3260,1 50205U 21125BB  23346.14200128  .00004491  00000-0  30005-3 0  9998,2 50205  53.2165 283.7274 0001534  82.8460 277.2707 15.08845248113114,6917.864,95.437,540.791,538.668,0.0
50205.0,STARLINK-3260,PAYLOAD,2023-12-13 03:15:16,15.08843884,0.0001602,53.2168,279.2697,77.669,282.4482,0.00015314,2.15e-05,0.0,0 STARLINK-3260,1 50205U 21125BB  23347.13560289  .00002150  00000-0  15314-3 0  9991,2 50205  53.2168 279.2697 0001602  77.6690 282.4482 15.08843884113267,6917.869,95.437,540.842,538.625,0.0
50205.0,STARLINK-3260,PAYLOAD,2023-12-14 03:06:03,15.08844621,0.0002077,53.2179,274.8102,63.1677,296.9528,0.00011671,1.57e-05,0.0,0 STARLINK-3260,1 50205U 21125BB  23348.12920498  .00001570  00000-0  11671-3 0  9990,2 50205  53.2179 274.8102 0002077  63.1677 296.9528 15.08844621113411,6917.866,95.437,541.168,538.294,0.0
50205.0,STARLINK-3260,PAYLOAD,2023-12-15 01:21:27,15.08844202,0.0002267,53.2183,270.6458,61.1549,298.967,0.00014628,2.041e-05,0.0,0 STARLINK-3260,1 50205U 21125BB  23349.05656571  .00002041  00000-0  14628-3 0  9990,2 50205  53.2183 270.6458 0002267  61.1549 298.9670 15.08844202114024,6917.868,95.437,541.301,538.164,0.0
50205.0,STARLINK-3260,PAYLOAD,2023-12-15 22:01:27,15.08840403,0.0002081,53.2164,266.7841,130.489,229.6283,-3.3841e-05,-8.27e-06,0.0,0 STARLINK-3260,1 50205U 21125BB  23349.91768376 -.00000827  00000-0 -33841-4 0  9993,2 50205  53.2164 266.7841 0002081 130.4890 229.6283 15.08840403114152,6917.879,95.438,541.184,538.305,0.0
50205.0,STARLINK-3260,PAYLOAD,2023-12-16 01:12:14,15.08839349,0.0001614,53.2173,266.1859,98.2627,261.8549,2.1078e-05,4.7e-07,0.0,0 STARLINK-3260,1 50205U 21125BB  23350.05016607  .00000047  00000-0  21078-4 0  9994,2 50205  53.2173 266.1859 0001614  98.2627 261.8549 15.08839349113705,6917.882,95.438,540.864,538.631,0.0
50205.0,STARLINK-3260,PAYLOAD,2023-12-16 21:52:14,15.08850287,0.0001517,53.2168,262.3133,111.9668,248.1485,-0.00011647,-2.142e-05,0.0,0 STARLINK-3260,1 50205U 21125BB  23350.91127985 -.00002142  00000-0 -11647-3 0  9991,2 50205  53.2168 262.3133 0001517 111.9668 248.1485 15.08850287114300,6917.849,95.437,540.763,538.665,0.0
50205.0,STARLINK-3260,PAYLOAD,2023-12-17 01:03:00,15.08848098,0.000158,53.2165,261.7232,109.775,250.3413,9.1551e-05,1.17e-05,0.0,0 STARLINK-3260,1 50205U 21125BB  23351.04376096  .00001170  00000-0  91551-4 0  9996,2 50205  53.2165 261.7232 0001580 109.7750 250.3413 15.08848098113859,6917.856,95.437,540.814,538.628,0.0
50205.0,STARLINK-3260,PAYLOAD,2023-12-17 21:43:02,15.08842091,0.0001564,53.2161,257.855,104.5631,255.5534,0.00014146,1.964e-05,0.0,0 STARLINK-3260,1 50205U 21125BB  23351.90488430  .00001964  00000-0  14146-3 0  9992,2 50205  53.2161 257.8550 0001564 104.5631 255.5534 15.08842091114452,6917.874,95.437,540.821,538.657,0.0
